HORYU-4                 
1 41340U 16012D   20303.91356117  .00000768  00000-0  51162-4 0  9993
2 41340  31.0042 195.4439 0013674  43.3237 316.8472 15.01599568258108
E-ST@R-II               
1 41459U 16025D   20304.02098972  .00003317  00000-0  16706-3 0  9990
2 41459  98.1153  61.1465 0164598 118.6709 243.1172 15.06868420247700
AAUSAT 4                
1 41460U 16025E   20303.81298314  .00005212  00000-0  25150-3 0  9999
2 41460  98.1154  63.7578 0152831 106.6817 255.1260 15.09382058247904
BEESAT-4                
1 41619U 16040W   20303.81423808  .00002301  00000-0  96637-4 0  9995
2 41619  97.3046   0.0798 0012541  69.8318 290.4268 15.24380298229864
CANX-7                  
1 41788U 16059F   20304.24776233  .00012918  00000-0  16850-2 0  9995
2 41788  98.2551  35.7023 0031041 219.4300 140.4716 14.80339458219749
RAVAN                   
1 41849U 16067B   20303.88313998  .00000626  00000-0  57257-4 0  9997
2 41849  97.9467  56.1162 0009089 143.3187 216.8659 14.98693499216754
CELTEE 1                
1 41850U 16067C   20304.07069910  .00000685  00000-0  64380-4 0  9993
2 41850  97.9385  53.6244 0009478 150.3807 209.7952 14.97258656216643
OPTICUBE 04             
1 41851U 16067D   20303.89146520 -.00000257  00000-0 -17046-4 0  9990
2 41851  97.9365  52.9862 0009211 156.0393 204.1259 14.96971622216595
AEROCUBE 8D             
1 41852U 16067E   20303.84083216  .00000481  00000-0  47091-4 0  9998
2 41852  97.9364  52.7793 0010242 157.5495 202.6176 14.96984775216562
AEROCUBE 8C             
1 41853U 16067F   20303.87555543  .00000239  00000-0  26054-4 0  9996
2 41853  97.9372  52.7061 0010401 156.5123 203.6575 14.96958183216562
PROMETHEUS 2-1          
1 41854U 16067G   20303.88156067  .00000213  00000-0  23659-4 0  9996
2 41854  97.9382  53.1303 0010611 156.0080 204.1638 14.97320125216586
PROMETHEUS 2-3          
1 41855U 16067H   20303.88115481  .00000253  00000-0  27034-4 0  9997
2 41855  97.9386  53.1694 0010776 156.4197 203.7520 14.97330293216581
INS-1B                  
1 41954U 17008G   20304.12777550  .00002247  00000-0  92465-4 0  9997
2 41954  97.3403   6.0324 0009008 175.4463 184.6859 15.25127998205897
BGUSAT                  
1 41999U 17008BD  20304.13548033  .00004043  00000-0  15017-3 0  9992
2 41999  97.3538  10.9742 0007804 180.9187 179.2040 15.28099224205513
DIDO-2                  
1 42000U 17008BE  20303.92465914  .00001283  00000-0  54709-4 0  9993
2 42000  97.3406   6.2815 0007826 195.0886 165.0119 15.24711761205251
PEASSS                  
1 42015U 17008BV  20303.93019203  .00002006  00000-0  80977-4 0  9996
2 42015  97.3440   8.1712 0005777 192.9351 167.1740 15.25928446205858
AL-FARABI 1             
1 42016U 17008BW  20303.93939507  .00002646  00000-0  10300-3 0  9997
2 42016  97.3476   9.4576 0005641 191.5757 168.5353 15.26860404206042
NAYIF-1 (EO-88)         
1 42017U 17008BX  20303.91441593  .00002652  00000-0  10312-3 0  9999
2 42017  97.3470   9.4427 0005697 190.9865 169.1250 15.26903614206062
UCLSAT                  
1 42765U 17036A   20304.11602984  .00002036  00000-0  87254-4 0  9992
2 42765  97.2853 354.6437 0009442 271.5705  88.4451 15.23848050186492
LITUANICASAT-2          
1 42768U 17036D   20303.90513981  .00003566  00000-0  14716-3 0  9990
2 42768  97.2918 354.6450 0012723 259.9186 100.0617 15.24610652186324
AALTO-1                 
1 42775U 17036L   20303.90744297  .00001243  00000-0  57260-4 0  9996
2 42775  97.2824 351.8672 0012069 266.3799  93.6057 15.22048285186126
URSA MAIOR              
1 42776U 17036M   20304.14280316  .00001381  00000-0  62918-4 0  9990
2 42776  97.2835 352.4399 0011862 264.9497  95.0386 15.22253168186175
COMPASS 2               
1 42777U 17036N   20304.14146830  .00002623  00000-0  10989-3 0  9993
2 42777  97.2902 355.2335 0010404 260.5304  99.4758 15.24357709186317
DIAMOND RED             
1 42783U 17036U   20303.38516411  .00001631  00000-0  72030-4 0  9995
2 42783  97.2851 353.0591 0010186 277.7124  82.2957 15.23098365186134
PEGASUS                 
1 42784U 17036V   20303.77531694  .00001792  00000-0  77891-4 0  9997
2 42784  97.2855 353.9466 0010053 274.5778  85.4311 15.23514387186228
DIAMOND GREEN           
1 42785U 17036W   20304.10679272  .00001611  00000-0  71189-4 0  9995
2 42785  97.2851 353.7986 0010100 275.4894  84.5191 15.23096863186233
DIAMOND BLUE            
1 42786U 17036X   20304.10583189  .00001591  00000-0  70305-4 0  9993
2 42786  97.2851 353.7924 0009937 275.7747  84.2357 15.23100592186238
NUDTSAT                 
1 42787U 17036Y   20304.10487771  .00002896  00000-0  11887-3 0  9992
2 42787  97.2892 355.9897 0009305 267.4099  92.6074 15.24979341186218
SUCHAI                  
1 42788U 17036Z   20304.14284331  .00002221  00000-0  94141-4 0  9991
2 42788  97.2867 355.0227 0009553 270.3640  89.6503 15.24123960186399
SKCUBE                  
1 42789U 17036AA  20303.87553010  .00002046  00000-0  87421-4 0  9992
2 42789  97.2861 354.5716 0009432 271.9286  88.0872 15.23939435186269
VZLUSAT-1               
1 42790U 17036AB  20303.89854456  .00002853  00000-0  11724-3 0  9992
2 42790  97.2891 355.7815 0008923 268.2125  91.8091 15.24956080186331
ROBUSTA-1B              
1 42792U 17036AD  20304.14030326  .00002073  00000-0  88019-4 0  9991
2 42792  97.2864 355.1239 0009021 271.0650  88.9554 15.24145831186337
CICERO 6                
1 42793U 17036AE  20303.86085713  .00001398  00000-0  61659-4 0  9990
2 42793  97.2835 354.0746 0008418 276.5294  83.4984 15.23379625186325
D-SAT                   
1 42794U 17036AF  20303.76989647  .00000390  00000-0  39317-4 0  9996
2 42794  97.4827 329.7003 0124489 276.6986  82.0079 14.91348398182716
CORVUS BC2              
1 42846U 17042X   20303.62786760  .00000279  00000-0  32608-4 0  9999
2 42846  97.5014 180.9864 0009366 181.0730 179.0471 14.92157114179418
CORVUS BC1              
1 42847U 17042Y   20303.94970296  .00000444  00000-0  48681-4 0  9996
2 42847  97.5017 181.4872 0009075 178.8406 181.2836 14.92259039179462
MIRATA                  
1 43015U 17073C   20304.17009523  .00002283  00000-0  18089-3 0  9991
2 43015  97.7113 211.2256 0251828 329.3528  29.3174 14.79936017159143
MAKERSAT 0              
1 43016U 17073D   20303.70034274  .00001753  00000-0  14055-3 0  9991
2 43016  97.7150 210.9232 0254892 332.2845  26.4971 14.79421365159052
DELLINGR (RBLE)         
1 43021U 98067NJ  20304.21386241  .00030809  00000-0  20352-3 0  9991
2 43021  51.6333 309.2031 0000911  79.1737 280.9365 15.75302923168078
AEROCUBE 7B (OCSD B)    
1 43042U 17071F   20303.79322167  .00007763  00000-0  17242-3 0  9996
2 43042  51.6357 126.9041 0004628 172.3546 187.7512 15.44683258163134
AEROCUBE 7C (OCSD C)    
1 43043U 17071G   20303.73418842  .00007234  00000-0  16145-3 0  9991
2 43043  51.6356 127.2751 0004827 176.3363 183.7660 15.44653345163097
CHEFSAT                 
1 43044U 17071H   20303.71374084  .00015812  00000-0  27784-3 0  9991
2 43044  51.6356 107.2214 0004330 189.6228 170.4679 15.50666943163364
ASGARDIA 1              
1 43049U 17071N   20303.92034364  .00007094  00000-0  15860-3 0  9998
2 43049  51.6371 125.6086 0002454 185.6427 174.4532 15.44637766163130
ISARA                   
1 43050U 17071P   20303.73146615  .00013715  00000-0  25383-3 0  9990
2 43050  51.6340 110.9326 0002415 194.8557 165.2361 15.49317889163308
PROPCUBE 2 (FAUNA)      
1 43052U 17071R   20303.79919158  .00006843  00000-0  15058-3 0  9990
2 43052  51.6357 124.0641 0002452 183.0463 177.0510 15.45175295163138
CORVUS BC3              
1 43118U 18004H   20304.14089171  .00001343  00000-0  59086-4 0  9993
2 43118  97.4315  13.2326 0008898 304.9514  55.0887 15.23582109155509
MICROMAS-2A             
1 43131U 18004W   20304.18207730  .00003112  00000-0  12467-3 0  9992
2 43131  97.4380  15.5156 0007538 301.4949  58.5553 15.25775110155636
SPACEBEE-4              
1 43139U 18004AE  20304.15922895  .00004729  00000-0  17962-3 0  9993
2 43139  97.4421  17.0257 0006816 301.2882  58.7689 15.27287697155701
SPACEBEE-3              
1 43140U 18004AF  20304.14874959  .00006227  00000-0  22808-3 0  9991
2 43140  97.4443  17.9336 0006445 298.1839  61.8749 15.28366077155767
SPACEBEE-2              
1 43141U 18004AG  20304.16457735  .00006616  00000-0  23945-3 0  9998
2 43141  97.4459  18.3011 0006378 296.8444  63.2143 15.28734760155786
SPACEBEE-1              
1 43142U 18004AH  20304.16365753  .00007659  00000-0  27310-3 0  9995
2 43142  97.4464  18.6487 0006321 296.0565  64.0024 15.29166487155791
CICERO 7                
1 43143U 18004AJ  20304.18133106  .00002848  00000-0  11437-3 0  9991
2 43143  97.4354  15.6622 0005974 314.4874  45.5875 15.25775934155651
GOMX-4B                 
1 43196U 18015E   20304.11770337  .00000631  00000-0  28562-4 0  9993
2 43196  97.4566  71.7901 0018341 355.1982   4.9076 15.24487919152416
GOMX-4A                 
1 43197U 18015F   20304.12901942  .00001312  00000-0  55746-4 0  9994
2 43197  97.4548  71.9343 0018800 356.4346 124.7273 15.24725718152431
UBAKUSAT                
1 43467U 98067NQ  20304.02829239  .00113131  00000-0  42381-3 0  9999
2 43467  51.6312 304.7139 0003306  57.7736 302.3589 15.87042721141382
CUBERRT                 
1 43546U 98067NU  20303.88037774  .00265728  00000-0  95497-3 0  9991
2 43546  51.6311 307.5307 0003176  78.7066 281.4295 15.87457211131464
TEMPEST-D               
1 43547U 98067NV  20303.44783827  .00010826  00000-0  11250-3 0  9993
2 43547  51.6385 354.4792 0003087 181.0787 179.0202 15.65207719130487
RAINCUBE                
1 43548U 98067NW  20303.46080418  .00115263  00000-0  44507-3 0  9994
2 43548  51.6284 316.6368 0002197  36.2682 323.8471 15.86419321131431
HALOSAT                 
1 43549U 98067NX  20303.77118272  .00103463  00000-0  45538-3 0  9993
2 43549  51.6327 317.3740 0001597  15.2644 344.8407 15.83738465131016
